[{"OBJECT_NAME":"BEIDOU-3 G3 (PRN 143)","OBJECT_ID":"2020-040A","EPOCH":"2026-02-01T22:34:13.735200","MEAN_MOTION":1.00268618,"ECCENTRICITY":0.0004732,"INCLINATION":2.1151,"RA_OF_ASC_NODE":66.9811,"ARG_OF_PERICENTER":306.9374,"MEAN_ANOMALY":207.3143,"EPHEMERIS_TYPE":0,"CLASSIFICATION_TYPE":"U","NORAD_CAT_ID":45807,"ELEMENT_SET_NO":999,"REV_AT_EPOCH":2071,"BSTAR":0,"MEAN_MOTION_DOT":-3.64e-6,"MEAN_MOTION_DDOT":0},{"OBJECT_NAME":"GALAXY 30 (WAAS/PRN 135)","OBJECT_ID":"2020-056C","EPOCH":"2026-02-01T16:18:56.329632","MEAN_MOTION":1.00272904,"ECCENTRICITY":0.00022424,"INCLINATION":0.0162,"RA_OF_ASC_NODE":66.4265,"ARG_OF_PERICENTER":252.2121,"MEAN_ANOMALY":292.9621,"EPHEMERIS_TYPE":0,"CLASSIFICATION_TYPE":"U","NORAD_CAT_ID":46114,"ELEMENT_SET_NO":999,"REV_AT_EPOCH":1993,"BSTAR":0,"MEAN_MOTION_DOT":2.7e-7,"MEAN_MOTION_DDOT":0},{"OBJECT_NAME":"QZS-1R (QZSS/PRN 196)","OBJECT_ID":"2021-096A","EPOCH":"2026-01-28T00:30:46.600416","MEAN_MOTION":1.00240661,"ECCENTRICITY":0.07614524,"INCLINATION":37.1709,"RA_OF_ASC_NODE":81.6666,"ARG_OF_PERICENTER":272.2985,"MEAN_ANOMALY":271.7833,"EPHEMERIS_TYPE":0,"CLASSIFICATION_TYPE":"U","NORAD_CAT_ID":49336,"ELEMENT_SET_NO":999,"REV_AT_EPOCH":1560,"BSTAR":0,"MEAN_MOTION_DOT":-2.92e-6,"MEAN_MOTION_DDOT":0},{"OBJECT_NAME":"QZS-6 (QZSS/PRN 200)","OBJECT_ID":"2025-023A","EPOCH":"2026-02-01T22:28:29.285184","MEAN_MOTION":1.00273096,"ECCENTRICITY":0.00021739,"INCLINATION":0.0183,"RA_OF_ASC_NODE":64.1158,"ARG_OF_PERICENTER":250.1022,"MEAN_ANOMALY":245.5323,"EPHEMERIS_TYPE":0,"CLASSIFICATION_TYPE":"U","NORAD_CAT_ID":62876,"ELEMENT_SET_NO":999,"REV_AT_EPOCH":360,"BSTAR":0,"MEAN_MOTION_DOT":-2.43e-6,"MEAN_MOTION_DDOT":0}]
