BEIDOU-3 G3             
1 45807U 20040A   26032.94043675 -.00000364  00000+0  00000+0 0  9993
2 45807   2.1151  66.9811 0004732 306.9374 207.3143  1.00268618 20717
GALAXY 30 (G-30)        
1 46114U 20056C   26032.67981863  .00000027  00000+0  00000+0 0  9997
2 46114   0.0162  66.4265 0002242 252.2121 292.9621  1.00272904 19939
QZS-1R (MICHIBIKI-1R)   
1 49336U 21096A   26028.02137269 -.00000292  00000+0  00000+0 0  9993
2 49336  37.1709  81.6666 0761452 272.2985 271.7833  1.00240661 15600
QZS-6 (MICHIBIKI-6)     
1 62876U 25023A   26032.93645006 -.00000243  00000+0  00000+0 0  9995
2 62876   0.0183  64.1158 0002173 250.1022 245.5323  1.00273096  3604
